{"type": "FeatureCollection", "features": [ {"type": "Feature", "properties": {"norad_id": 44476, "name": "INTELSAT 39 (IS-39)", "group": "intelsat", "lat": 0.03602319886295823, "lon": 29.087555697296377, "alt_km": 35788.67711127759, "timestamp": "2025-12-06T16:45:42.394506+00:00", "meta": {"OBJECT_NAME": "INTELSAT 39 (IS-39)", "OBJECT_ID": "2019-049B", "EPOCH": "2025-12-06T05:23:59.579232", "MEAN_MOTION": 1.0027014, "ECCENTRICITY": 8.181e-05, "INCLINATION": 0.0171, "RA_OF_ASC_NODE": 327.3545, "ARG_OF_PERICENTER": 190.9753, "MEAN_ANOMALY": 59.8838, "EPHEMERIS_TYPE": 0, "CLASSIFICATION_TYPE": "U", "NORAD_CAT_ID": 44476, "ELEMENT_SET_NO": 999, "REV_AT_EPOCH": 2319, "BSTAR": 0, "MEAN_MOTION_DOT": 4.2e-07, "MEAN_MOTION_DDOT": 0}, "tle": {"line1": "1 44476U 19049B   25340.22499513  .00000042  00000+0  00000+0 0  9991", "line2": "2 44476   0.0171 327.3545 0000818 190.9753  59.8838  1.00270140 23197"}}, "geometry": {"type": "Point", "coordinates": [29.087555697296377, 0.03602319886295823]}}, {"type": "Feature", "properties": {"norad_id": 46114, "name": "GALAXY 30 (G-30)", "group": "intelsat", "lat": -0.02899085236934031, "lon": -157.87507783852953, "alt_km": 35779.79529304862, "timestamp": "2025-12-06T16:45:42.394517+00:00", "meta": {"OBJECT_NAME": "GALAXY 30 (G-30)", "OBJECT_ID": "2020-056C", "EPOCH": "2025-12-06T06:13:24.843648", "MEAN_MOTION": 1.0027024, "ECCENTRICITY": 0.00024879, "INCLINATION": 0.016, "RA_OF_ASC_NODE": 339.3733, "ARG_OF_PERICENTER": 273.2782, "MEAN_ANOMALY": 151.0031, "EPHEMERIS_TYPE": 0, "CLASSIFICATION_TYPE": "U", "NORAD_CAT_ID": 46114, "ELEMENT_SET_NO": 999, "REV_AT_EPOCH": 1935, "BSTAR": 0, "MEAN_MOTION_DOT": 4.5e-07, "MEAN_MOTION_DDOT": 0}, "tle": {"line1": "1 46114U 20056C   25340.25931532  .00000045  00000+0  00000+0 0  9990", "line2": "2 46114   0.0160 339.3733 0002487 273.2782 151.0031  1.00270240 19353"}}, "geometry": {"type": "Point", "coordinates": [-157.87507783852953, -0.02899085236934031]}}, {"type": "Feature", "properties": {"norad_id": 54026, "name": "GALAXY 33 (G-33)", "group": "intelsat", "lat": -0.0030619244517059094, "lon": -165.87371222608695, "alt_km": 35781.288274131046, "timestamp": "2025-12-06T16:45:42.394529+00:00", "meta": {"OBJECT_NAME": "GALAXY 33 (G-33)", "OBJECT_ID": "2022-128A", "EPOCH": "2025-12-06T05:54:31.029408", "MEAN_MOTION": 1.00269982, "ECCENTRICITY": 0.00022492, "INCLINATION": 0.0173, "RA_OF_ASC_NODE": 36.0908, "ARG_OF_PERICENTER": 214.4821, "MEAN_ANOMALY": 140.3457, "EPHEMERIS_TYPE": 0, "CLASSIFICATION_TYPE": "U", "NORAD_CAT_ID": 54026, "ELEMENT_SET_NO": 999, "REV_AT_EPOCH": 1180, "BSTAR": 0, "MEAN_MOTION_DOT": 8.7e-07, "MEAN_MOTION_DDOT": 0}, "tle": {"line1": "1 54026U 22128A   25340.24619247  .00000087  00000+0  00000+0 0  9994", "line2": "2 54026   0.0173  36.0908 0002249 214.4821 140.3457  1.00269982 11806"}}, "geometry": {"type": "Point", "coordinates": [-165.87371222608695, -0.0030619244517059094]}}, {"type": "Feature", "properties": {"norad_id": 54027, "name": "GALAXY 34 (G-34)", "group": "intelsat", "lat": -0.0285476331022219, "lon": -161.80386171183852, "alt_km": 35782.93875856531, "timestamp": "2025-12-06T16:45:42.394540+00:00", "meta": {"OBJECT_NAME": "GALAXY 34 (G-34)", "OBJECT_ID": "2022-128B", "EPOCH": "2025-12-06T05:56:29.506272", "MEAN_MOTION": 1.00269731, "ECCENTRICITY": 0.00013375, "INCLINATION": 0.0207, "RA_OF_ASC_NODE": 342.5659, "ARG_OF_PERICENTER": 264.9149, "MEAN_ANOMALY": 147.9933, "EPHEMERIS_TYPE": 0, "CLASSIFICATION_TYPE": "U", "NORAD_CAT_ID": 54027, "ELEMENT_SET_NO": 999, "REV_AT_EPOCH": 1197, "BSTAR": 0, "MEAN_MOTION_DOT": 0, "MEAN_MOTION_DDOT": 0}, "tle": {"line1": "1 54027U 22128B   25340.24756373  .00000000  00000+0  00000+0 0  9992", "line2": "2 54027   0.0207 342.5659 0001337 264.9149 147.9933  1.00269731 11975"}}, "geometry": {"type": "Point", "coordinates": [-161.80386171183852, -0.0285476331022219]}}, {"type": "Feature", "properties": {"norad_id": 54243, "name": "GALAXY 31 (G-31)", "group": "intelsat", "lat": -0.0057149045883513345, "lon": -153.86888463482063, "alt_km": 35782.1990030457, "timestamp": "2025-12-06T16:45:42.394552+00:00", "meta": {"OBJECT_NAME": "GALAXY 31 (G-31)", "OBJECT_ID": "2022-153A", "EPOCH": "2025-12-06T06:14:32.237376", "MEAN_MOTION": 1.00270777, "ECCENTRICITY": 0.00019728, "INCLINATION": 0.0101, "RA_OF_ASC_NODE": 58.837, "ARG_OF_PERICENTER": 207.6603, "MEAN_ANOMALY": 141.4417, "EPHEMERIS_TYPE": 0, "CLASSIFICATION_TYPE": "U", "NORAD_CAT_ID": 54243, "ELEMENT_SET_NO": 999, "REV_AT_EPOCH": 519, "BSTAR": 0, "MEAN_MOTION_DOT": 2.1e-07, "MEAN_MOTION_DDOT": 0}, "tle": {"line1": "1 54243U 22153A   25340.26009534  .00000021  00000+0  00000+0 0  9995", "line2": "2 54243   0.0101  58.8370 0001972 207.6603 141.4417  1.00270777  5194"}}, "geometry": {"type": "Point", "coordinates": [-153.86888463482063, -0.0057149045883513345]}}, {"type": "Feature", "properties": {"norad_id": 54244, "name": "GALAXY 32 (G-32)", "group": "intelsat", "lat": -0.03396445656292787, "lon": -123.83398401193568, "alt_km": 35779.58513245185, "timestamp": "2025-12-06T16:45:42.394563+00:00", "meta": {"OBJECT_NAME": "GALAXY 32 (G-32)", "OBJECT_ID": "2022-153B", "EPOCH": "2025-12-04T13:17:37.099104", "MEAN_MOTION": 1.00275803, "ECCENTRICITY": 0.00027886, "INCLINATION": 0.0107, "RA_OF_ASC_NODE": 343.0801, "ARG_OF_PERICENTER": 315.5746, "MEAN_ANOMALY": 243.3847, "EPHEMERIS_TYPE": 0, "CLASSIFICATION_TYPE": "U", "NORAD_CAT_ID": 54244, "ELEMENT_SET_NO": 999, "REV_AT_EPOCH": 1119, "BSTAR": 0, "MEAN_MOTION_DOT": -1.6e-06, "MEAN_MOTION_DDOT": 0}, "tle": {"line1": "1 54244U 22153B   25338.55390161 -.00000160  00000+0  00000+0 0  9999", "line2": "2 54244   0.0107 343.0801 0002788 315.5746 243.3847  1.00275803 11193"}}, "geometry": {"type": "Point", "coordinates": [-123.83398401193568, -0.03396445656292787]}}, {"type": "Feature", "properties": {"norad_id": 54741, "name": "GALAXY 35 (G-35)", "group": "intelsat", "lat": -0.023308103407158783, "lon": -125.9540656922662, "alt_km": 35776.115238156424, "timestamp": "2025-12-06T16:45:42.394575+00:00", "meta": {"OBJECT_NAME": "GALAXY 35 (G-35)", "OBJECT_ID": "2022-170A", "EPOCH": "2025-12-06T06:22:31.471392", "MEAN_MOTION": 1.00271232, "ECCENTRICITY": 0.00027351, "INCLINATION": 0.0155, "RA_OF_ASC_NODE": 29.9564, "ARG_OF_PERICENTER": 233.065, "MEAN_ANOMALY": 174.8296, "EPHEMERIS_TYPE": 0, "CLASSIFICATION_TYPE": "U", "NORAD_CAT_ID": 54741, "ELEMENT_SET_NO": 999, "REV_AT_EPOCH": 1095, "BSTAR": 0, "MEAN_MOTION_DOT": -1.54e-06, "MEAN_MOTION_DDOT": 0}, "tle": {"line1": "1 54741U 22170A   25340.26564203 -.00000154  00000+0  00000+0 0  9994", "line2": "2 54741   0.0155  29.9564 0002735 233.0650 174.8296  1.00271232 10955"}}, "geometry": {"type": "Point", "coordinates": [-125.9540656922662, -0.023308103407158783]}}, {"type": "Feature", "properties": {"norad_id": 54742, "name": "GALAXY 36 (G-36)", "group": "intelsat", "lat": -0.03798178669908202, "lon": -121.86779861581344, "alt_km": 35784.34324957479, "timestamp": "2025-12-06T16:45:42.394586+00:00", "meta": {"OBJECT_NAME": "GALAXY 36 (G-36)", "OBJECT_ID": "2022-170B", "EPOCH": "2025-12-06T06:23:38.864256", "MEAN_MOTION": 1.00269678, "ECCENTRICITY": 6.459e-05, "INCLINATION": 0.0128, "RA_OF_ASC_NODE": 332.5685, "ARG_OF_PERICENTER": 295.905, "MEAN_ANOMALY": 173.7364, "EPHEMERIS_TYPE": 0, "CLASSIFICATION_TYPE": "U", "NORAD_CAT_ID": 54742, "ELEMENT_SET_NO": 999, "REV_AT_EPOCH": 1083, "BSTAR": 0, "MEAN_MOTION_DOT": 0, "MEAN_MOTION_DDOT": 0}, "tle": {"line1": "1 54742U 22170B   25340.26642204  .00000000  00000+0  00000+0 0  9992", "line2": "2 54742   0.0128 332.5685 0000645 295.9050 173.7364  1.00269678 10834"}}, "geometry": {"type": "Point", "coordinates": [-121.86779861581344, -0.03798178669908202]}}, {"type": "Feature", "properties": {"norad_id": 57493, "name": "GALAXY 37 (G-37)", "group": "intelsat", "lat": -0.026694487309843504, "lon": -159.8710459206398, "alt_km": 35781.22400505828, "timestamp": "2025-12-06T16:45:42.394598+00:00", "meta": {"OBJECT_NAME": "GALAXY 37 (G-37)", "OBJECT_ID": "2023-112A", "EPOCH": "2025-12-06T06:12:47.403936", "MEAN_MOTION": 1.00270343, "ECCENTRICITY": 0.00024156, "INCLINATION": 0.0105, "RA_OF_ASC_NODE": 329.3224, "ARG_OF_PERICENTER": 290.0794, "MEAN_ANOMALY": 142.102, "EPHEMERIS_TYPE": 0, "CLASSIFICATION_TYPE": "U", "NORAD_CAT_ID": 57493, "ELEMENT_SET_NO": 999, "REV_AT_EPOCH": 860, "BSTAR": 0, "MEAN_MOTION_DOT": 5.6e-07, "MEAN_MOTION_DDOT": 0}, "tle": {"line1": "1 57493U 23112A   25340.25888199  .00000056  00000+0  00000+0 0  9990", "line2": "2 57493   0.0105 329.3224 0002415 290.0794 142.1020  1.00270343  8608"}}, "geometry": {"type": "Point", "coordinates": [-159.8710459206398, -0.026694487309843504]}}]}